MEAN_MOTION;ECCENTRICITY;INCLINATION;RA_OF_ASC_NODE;ARG_OF_PERICENTER;MEAN_ANOMALY;BSTAR;MEAN_MOTION_DOT;MEAN_MOTION_DDOT;TYPE
2.0057656;0.0018072;55.1475;135.1411;27.908;332.2575;0;1.1E-7;0;Weather
2.0057656;0.0018072;55.1475;135.1411;27.908;332.2575;0;1.1E-7;0;Weather
2.00576614;0.0018091;55.1479;135.1013;27.8548;332.3141;0;1.7E-7;0;Weather
2.00576613;0.0018098;55.1481;135.0815;27.7901;332.3808;0;2.1E-7;0;Weather
2.00576711;0.0018103;55.1482;135.0617;27.709;332.4639;0;2.4E-7;0;Weather
2.00576718;0.0018114;55.1484;135.0418;27.6499;332.5249;0;2.7E-7;0;Weather
2.00576711;0.0018122;55.1486;135.0219;27.6436;332.5331;0;2.9E-7;0;Weather
2.00576855;0.0018131;55.1489;134.9822;27.5643;332.6148;0;3.0E-7;0;Weather
2.00576874;0.0018136;55.1489;134.9822;27.5388;332.6402;0;3.0E-7;0;Weather
2.0057685;0.0018146;55.1491;134.9623;27.5045;332.675;0;2.9E-7;0;Weather
2.00576881;0.0018156;55.1492;134.9425;27.491;332.6886;0;2.7E-7;0;Weather
2.00576881;0.0018156;55.1492;134.9425;27.491;332.6886;0;2.7E-7;0;Weather
2.00577038;0.0018171;55.1496;134.9027;27.4294;332.7484;0;2.0E-7;0;Weather
2.00577155;0.0018187;55.1499;134.863;27.3988;332.7757;0;9.0E-8;0;Weather
2.00577162;0.0018189;55.1499;134.8629;27.4006;332.7738;0;9.0E-8;0;Weather
2.00577236;0.0018201;55.1503;134.8232;27.377;332.7932;0;-3.0E-8;0;Weather
2.00577236;0.0018201;55.1503;134.8232;27.377;332.7932;0;-3.0E-8;0;Weather
2.00577403;0.0018226;55.151;134.7438;27.2514;332.9114;0;-1.9E-7;0;Weather
2.00577403;0.0018226;55.151;134.7438;27.2514;332.9114;0;-1.9E-7;0;Weather
2.00577515;0.0018249;55.1514;134.704;27.1846;332.9766;0;-2.0E-7;0;Weather
2.00577581;0.0018256;55.1516;134.6842;27.109;333.0519;0;-1.8E-7;0;Weather
2.00577734;0.0018274;55.1522;134.6247;27.0693;333.0939;0;-6.0E-8;0;Weather
2.00577742;0.0018281;55.1522;134.6246;27.0646;333.0986;0;-6.0E-8;0;Weather
2.00577786;0.0018292;55.1524;134.6048;27.0012;333.1635;0;0;0;Weather
2.00577786;0.0018292;55.1524;134.6048;27.0012;333.1635;0;0;0;Weather
2.00577897;0.0018318;55.153;134.5453;26.997;333.1737;0;2.0E-7;0;Weather
2.00577897;0.0018318;55.153;134.5453;26.997;333.1737;0;2.0E-7;0;Weather
2.00577982;0.0018342;55.1533;134.5055;26.8894;333.2854;0;3.3E-7;0;Weather
2.00577982;0.0018342;55.1533;134.5055;26.8894;333.2854;0;3.3E-7;0;Weather
2.00578061;0.0018365;55.1539;134.446;26.8397;333.3404;0;4.8E-7;0;Weather
2.00578061;0.0018365;55.1539;134.446;26.8397;333.3404;0;4.8E-7;0;Weather
2.00578155;0.0018397;55.1545;134.3865;26.7579;333.4245;0;5.5E-7;0;Weather
2.00578209;0.0018415;55.1547;134.3667;26.7267;333.4557;0;5.6E-7;0;Weather
2.00578257;0.0018443;55.1551;134.327;26.6374;333.5434;0;5.6E-7;0;Weather
2.00578279;0.0018449;55.1553;134.3072;26.6768;333.5027;0;5.6E-7;0;Weather
2.00578279;0.0018449;55.1553;134.3072;26.6768;333.5027;0;5.6E-7;0;Weather
2.00578377;0.0018492;55.1559;134.2476;26.624;333.5494;0;5.1E-7;0;Weather
2.00578399;0.0018502;55.1561;134.2278;26.609;333.5618;0;4.9E-7;0;Weather
2.00578399;0.0018502;55.1561;134.2278;26.609;333.5618;0;4.9E-7;0;Weather
2.00578423;0.0018528;55.1565;134.1881;26.6039;333.5621;0;4.6E-7;0;Weather
2.00578423;0.0018528;55.1565;134.1881;26.6039;333.5621;0;4.6E-7;0;Weather
2.0057849;0.0018553;55.1569;134.1484;26.5637;333.5981;0;4.5E-7;0;Weather
2.0057852;0.0018566;55.1571;134.1286;26.5609;333.5994;0;4.5E-7;0;Weather
2.00578567;0.0018576;55.1574;134.1087;26.5452;333.614;0;4.5E-7;0;Weather
2.00578567;0.0018576;55.1574;134.1087;26.5452;333.614;0;4.5E-7;0;Weather
2.00578664;0.0018599;55.1578;134.069;26.4922;333.6662;0;4.8E-7;0;Weather
2.00578663;0.0018611;55.158;134.0492;26.4875;333.6713;0;5.1E-7;0;Weather
2.00578773;0.0018633;55.1585;134.0095;26.4081;333.7524;0;5.7E-7;0;Weather
2.00578811;0.0018651;55.1589;133.9698;26.4074;333.7555;0;6.4E-7;0;Weather
2.00578933;0.0018673;55.1595;133.9102;26.4011;333.7644;0;6.9E-7;0;Weather
2.00578966;0.0018692;55.1595;133.9102;26.3781;333.7873;0;6.9E-7;0;Weather
2.00579005;0.0018713;55.1599;133.8705;26.3657;333.7993;0;6.7E-7;0;Weather
2.00579102;0.0018734;55.1603;133.8308;26.3637;333.7986;0;6.0E-7;0;Weather
2.00579173;0.0018745;55.1607;133.7911;26.3438;333.8138;0;5.0E-7;0;Weather
2.00579214;0.0018755;55.1607;133.7911;26.3289;333.8286;0;5.0E-7;0;Weather
2.00579214;0.0018755;55.1607;133.7911;26.3289;333.8286;0;5.0E-7;0;Weather
2.00547751;0.0020405;55.162;133.7311;29.4071;330.7611;0;3.1E-7;0;Weather
2.00547751;0.0020405;55.162;133.7311;29.4071;330.7611;0;3.1E-7;0;Weather
2.00547901;0.0018918;55.1587;133.7112;20.1559;339.9691;0;2.6E-7;0;Weather
2.00547901;0.0018918;55.1587;133.7112;20.1559;339.9691;0;2.6E-7;0;Weather
2.00547974;0.0019943;55.1627;133.6917;27.4646;332.6883;0;2.1E-7;0;Weather
2.00548064;0.0019827;55.1623;133.6719;27.6585;332.492;0;1.7E-7;0;Weather
2.00548107;0.0019775;55.1622;133.652;27.7334;332.4149;0;1.5E-7;0;Weather
2.00548107;0.0019775;55.1622;133.652;27.7334;332.4149;0;1.5E-7;0;Weather
2.00548265;0.0019794;55.1627;133.6124;27.6687;332.4765;0;1.4E-7;0;Weather
2.00548265;0.0019794;55.1627;133.6124;27.6687;332.4765;0;1.4E-7;0;Weather
2.00548389;0.0019829;55.1634;133.5529;27.6652;332.4793;0;2.2E-7;0;Weather
2.00548459;0.001985;55.1638;133.5133;27.6634;332.4826;0;3.3E-7;0;Weather
2.00548459;0.001985;55.1638;133.5133;27.6634;332.4826;0;3.3E-7;0;Weather
2.00548592;0.0019873;55.1642;133.4736;27.6647;332.4838;0;4.6E-7;0;Weather
2.00548675;0.0019864;55.1644;133.4538;27.6969;332.453;0;5.2E-7;0;Weather
2.00548787;0.0019896;55.165;133.3943;27.7091;332.445;0;6.8E-7;0;Weather
2.00548806;0.0019921;55.1652;133.3745;27.6762;332.479;0;7.2E-7;0;Weather
2.00548806;0.0019921;55.1652;133.3745;27.6762;332.479;0;7.2E-7;0;Weather
2.00548806;0.0019921;55.1652;133.3745;27.6762;332.479;0;7.2E-7;0;Weather
2.0054889;0.0019975;55.166;133.2952;27.6729;332.4832;0;8.1E-7;0;Weather
2.00548991;0.002002;55.1665;133.2556;27.6111;332.5429;0;8.1E-7;0;Weather
2.00549019;0.0020022;55.1667;133.2358;27.6474;332.505;0;8.0E-7;0;Weather
2.00549036;0.0020045;55.1671;133.1961;27.6616;332.4863;0;7.7E-7;0;Weather
2.00549036;0.0020045;55.1671;133.1961;27.6616;332.4863;0;7.7E-7;0;Weather
2.00549072;0.0020071;55.1675;133.1565;27.6662;332.4763;0;7.3E-7;0;Weather
2.00549072;0.0020071;55.1675;133.1565;27.6662;332.4763;0;7.3E-7;0;Weather
2.00549072;0.0020071;55.1675;133.1565;27.6662;332.4763;0;7.3E-7;0;Weather
2.0054916;0.0020094;55.168;133.1169;27.7213;332.4154;0;6.9E-7;0;Weather
2.00549183;0.0020115;55.1682;133.0971;27.7239;332.41;0;6.7E-7;0;Weather
2.00549268;0.0020165;55.1688;133.0376;27.7491;332.3784;0;6.4E-7;0;Weather
2.00549341;0.0020193;55.1693;132.998;27.7675;332.3579;0;6.6E-7;0;Weather
2.00549386;0.0020218;55.1697;132.9584;27.7832;332.3421;0;7.0E-7;0;Weather
2.00549456;0.0020245;55.1701;132.9187;27.7966;332.3299;0;7.5E-7;0;Weather
2.00549561;0.0020274;55.1705;132.8791;27.8131;332.3154;0;8.0E-7;0;Weather
2.00549614;0.0020308;55.171;132.8395;27.8329;332.2969;0;8.2E-7;0;Weather
2.00549614;0.0020308;55.171;132.8395;27.8329;332.2969;0;8.2E-7;0;Weather
2.00549624;0.0020303;55.171;132.8395;27.8329;332.2969;0;8.2E-7;0;Weather
2.00549649;0.0020319;55.1712;132.8196;27.8435;332.2863;0;8.2E-7;0;Weather
2.00549674;0.0020329;55.1714;132.7998;27.8476;332.2818;0;8.1E-7;0;Weather
2.00549674;0.0020329;55.1714;132.7998;27.8476;332.2818;0;8.1E-7;0;Weather
2.0054982;0.0020388;55.1721;132.7205;27.9226;332.2002;0;6.4E-7;0;Weather
2.0054982;0.0020388;55.1721;132.7205;27.9226;332.2002;0;6.4E-7;0;Weather
2.00549995;0.0020403;55.1726;132.6808;27.9632;332.1536;0;5.0E-7;0;Weather
2.00549995;0.0020403;55.1726;132.6808;27.9632;332.1536;0;5.0E-7;0;Weather
2.00550126;0.0020439;55.1733;132.6015;28.0481;332.0566;0;2.5E-7;0;Weather
2.00550236;0.0020441;55.1736;132.5817;28.0521;332.0501;0;2.1E-7;0;Weather
2.00550316;0.0020465;55.174;132.5421;28.0814;332.0172;0;1.7E-7;0;Weather
2.0055044;0.0020519;55.1745;132.4826;28.1375;331.9596;0;2.1E-7;0;Weather
2.00550569;0.0020537;55.1748;132.4629;28.1266;331.9708;0;2.4E-7;0;Weather
2.00550589;0.0020546;55.175;132.443;28.1549;331.9432;0;2.9E-7;0;Weather
2.00550649;0.0020571;55.1753;132.4034;28.208;331.8926;0;3.9E-7;0;Weather
2.00550653;0.0020569;55.1753;132.4034;28.1994;331.9012;0;3.9E-7;0;Weather
2.00550663;0.0020601;55.1757;132.3638;28.2469;331.8568;0;5.0E-7;0;Weather
2.00550798;0.002061;55.1761;132.3242;28.2761;331.8306;0;6.0E-7;0;Weather
2.00550813;0.0020617;55.1761;132.3242;28.2784;331.8284;0;6.0E-7;0;Weather
2.00550871;0.0020637;55.1765;132.2845;28.3301;331.7792;0;6.7E-7;0;Weather
2.00550897;0.0020644;55.1767;132.2647;28.3386;331.7715;0;7.0E-7;0;Weather
2.00550926;0.002066;55.1769;132.2449;28.3689;331.7417;0;7.1E-7;0;Weather
2.00550969;0.0020685;55.1772;132.2053;28.399;331.7116;0;7.2E-7;0;Weather
2.00551045;0.0020718;55.1776;132.1656;28.4346;331.6742;0;7.0E-7;0;Weather
2.00551125;0.0020748;55.178;132.126;28.4699;331.6356;0;6.7E-7;0;Weather
2.00551125;0.0020748;55.178;132.126;28.4699;331.6356;0;6.7E-7;0;Weather
2.00551171;0.0020824;55.1788;132.0467;28.5891;331.5071;0;5.6E-7;0;Weather
2.00551259;0.0020862;55.1792;132.0071;28.6669;331.4248;0;5.2E-7;0;Weather
2.00551259;0.0020862;55.1792;132.0071;28.6669;331.4248;0;5.2E-7;0;Weather
2.00551306;0.002091;55.1796;131.9675;28.7618;331.3265;0;4.9E-7;0;Weather
2.00551306;0.002091;55.1796;131.9675;28.7618;331.3265;0;4.9E-7;0;Weather
2.00551392;0.002094;55.1801;131.908;28.8386;331.2478;0;5.0E-7;0;Weather
2.00551441;0.0020969;55.1803;131.8882;28.8932;331.1937;0;5.1E-7;0;Weather
2.00551462;0.0020996;55.1807;131.8486;28.9449;331.1439;0;5.5E-7;0;Weather
2.00551495;0.0021024;55.181;131.8089;29.0022;331.0895;0;5.9E-7;0;Weather
2.00551611;0.0021038;55.1812;131.7891;29.017;331.0762;0;6.0E-7;0;Weather
2.00551704;0.002107;55.1817;131.7296;29.0941;331.0019;0;6.0E-7;0;Weather
2.00551793;0.0021111;55.182;131.69;29.1779;330.9178;0;5.5E-7;0;Weather
2.00551793;0.0021111;55.182;131.69;29.1779;330.9178;0;5.5E-7;0;Weather
2.00551887;0.0021137;55.1824;131.6503;29.2525;330.8408;0;4.4E-7;0;Weather
2.00551887;0.0021137;55.1824;131.6503;29.2525;330.8408;0;4.4E-7;0;Weather
2.00551887;0.0021137;55.1824;131.6503;29.2525;330.8408;0;4.4E-7;0;Weather
